ONEWEB-0228             
1 48780U 21045P   24079.93938647  .00000141  00000+0  34078-3 0  9990
2 48780  87.8967  62.2159 0001878  82.6466 277.4877 13.15547612137744
